     3.00           N                   E                   RINEX VERSION / TYPE
BRD_USR             ESA                 20190115 091803  UTCPGM / RUN BY / DATE
 GAL   3.6500E+01  1.4844E-01  3.9673E-04  0.0000E+00       IONOSPHERIC CORR
GAUT  2.7939677238E-09-1.776356839E-15 172800 2036 GSTB   0 TIME SYSTEM CORR
GPGA -1.4551915228E-09-1.110223025E-14 172800 2036 GSTB   0 TIME SYSTEM CORR
                                                            END OF HEADER
E11 2019 01 15 06 50 00 5.719815671910E-03 6.679101716145E-13 0.000000000000E+00
     7.300000000000E+01-5.621875000000E+01 2.772615490564E-09-1.020439191285E+00
    -2.525746822357E-06 2.853176556528E-04 1.031160354614E-05 5.440609642029E+03
     1.974000000000E+05 3.539025783539E-08-9.856246010037E-01 5.029141902924E-08
     9.819899985908E-01 1.304375000000E+02-3.523844621816E-01-5.452727127972E-09
     2.921550265724E-10 5.210000000000E+02 2.036000000000E+03 0.000000000000E+00
     3.120000000000E+00 0.000000000000E+00-1.862645149231E-08-2.025626599789E-08
     1.980850000000E+05 0.000000000000E+00 0.000000000000E+00 0.000000000000E+00
E13 2019 01 15 06 50 00 3.817518008873E-04 4.689582056017E-13 0.000000000000E+00
     7.300000000000E+01-2.684375000000E+01 2.800116636097E-09-3.030657460259E+00
    -1.186504960060E-06 3.480268642306E-04 8.914619684219E-06 5.440600885391E+03
     1.974000000000E+05-2.048909664154E-08-9.909058391370E-01 1.862645149231E-08
     9.852320488809E-01 1.615000000000E+02-1.477187693814E+00-5.445583973288E-09
     2.146517982518E-10 5.210000000000E+02 2.036000000000E+03 0.000000000000E+00
     3.120000000000E+00 4.550000000000E+02-4.423782229424E-09-5.355104804039E-09
     1.980850000000E+05 0.000000000000E+00 0.000000000000E+00 0.000000000000E+00
E14 2019 01 15 06 50 00 6.459689757321E-03-5.599076757790E-12 0.000000000000E+00
     7.300000000000E+01-1.004062500000E+02 3.751584839996E-09 1.431065541144E+00
    -6.591901183128E-06 1.662690317025E-01 2.725049853325E-06 5.289388576508E+03
     1.974000000000E+05 1.870095729828E-06-1.588064086615E+00-8.959323167801E-07
     8.826533142591E-01 2.692812500000E+02 1.458399000972E+00-5.241289749328E-09
    -4.960920927984E-10 5.210000000000E+02 2.036000000000E+03 0.000000000000E+00
     3.120000000000E+00 4.550000000000E+02 3.306195139885E-08 3.702007234097E-08
     1.980850000000E+05 0.000000000000E+00 0.000000000000E+00 0.000000000000E+00
E19 2019 01 15 06 50 00-9.110022801906E-06 3.268496584496E-13 0.000000000000E+00
     7.300000000000E+01-3.596875000000E+01 3.290851362883E-09 2.068043772130E+00
    -1.637265086174E-06 1.330286031589E-04 9.190291166306E-06 5.440615240097E+03
     1.974000000000E+05 3.725290298462E-08 1.116447341999E+00 3.725290298462E-08
     9.581973374052E-01 1.426250000000E+02 2.396548362727E+00-5.630234521867E-09
    -3.421571093598E-10 5.210000000000E+02 2.036000000000E+03 0.000000000000E+00
     3.120000000000E+00 0.000000000000E+00-8.614733815193E-09-9.080395102501E-09
     1.980850000000E+05 0.000000000000E+00 0.000000000000E+00 0.000000000000E+00
E21 2019 01 15 06 50 00-5.145136383362E-04-1.890043677122E-12 0.000000000000E+00
     7.300000000000E+01 7.271875000000E+01 2.837618198188E-09 2.477793068953E+00
     3.471970558167E-06 4.441908095032E-05 4.271045327187E-06 5.440625555038E+03
     1.974000000000E+05 4.470348358154E-08-3.073536719998E+00-2.048909664154E-08
     9.896628415326E-01 2.627500000000E+02 6.191603890983E-01-5.661664402476E-09
     8.821796034643E-11 5.210000000000E+02 2.036000000000E+03 0.000000000000E+00
     3.120000000000E+00 0.000000000000E+00-2.328306436539E-09-2.793967723846E-09
     1.980850000000E+05 0.000000000000E+00 0.000000000000E+00 0.000000000000E+00
E25 2019 01 15 06 50 00 1.923368196003E-03-1.141131633631E-11 0.000000000000E+00
     7.300000000000E+01 8.750000000000E+01 2.848690087948E-09 1.323109024573E+00
     4.146248102188E-06 1.754710683599E-04 4.461035132408E-06 5.440622432709E+03
     1.974000000000E+05-5.215406417847E-08-3.073545478489E+00 5.587935447693E-09
     9.896680758535E-01 2.564687500000E+02-1.366146950944E+00-5.660235771540E-09
     1.264338379054E-10 5.210000000000E+02 2.036000000000E+03 0.000000000000E+00
     3.120000000000E+00 0.000000000000E+00-1.164153218269E-09-1.629814505577E-09
     1.980850000000E+05 0.000000000000E+00 0.000000000000E+00 0.000000000000E+00
E27 2019 01 15 06 50 00 5.494024371728E-04-7.688072400924E-12 0.000000000000E+00
     7.300000000000E+01 7.518750000000E+01 2.832617989909E-09-1.581780528697E+00
     3.496184945107E-06 1.712981611490E-04 4.332512617111E-06 5.440627002716E+03
     1.974000000000E+05 1.303851604462E-08-3.073520291428E+00 5.587935447693E-09
     9.896354059670E-01 2.620312500000E+02-8.175686609135E-01-5.638806307488E-09
     5.821671067396E-11 5.210000000000E+02 2.036000000000E+03 0.000000000000E+00
     3.120000000000E+00 0.000000000000E+00-2.561137080193E-09-3.026798367500E-09
     1.980850000000E+05 0.000000000000E+00 0.000000000000E+00 0.000000000000E+00
E33 2019 01 15 06 50 00 8.479214156978E-04 7.105427357601E-14 0.000000000000E+00
     7.300000000000E+01-2.731250000000E+01 2.707612782941E-09 1.603766641124E+00
    -1.300126314163E-06 3.727634903044E-04 1.011602580547E-05 5.440603551865E+03
     1.974000000000E+05-1.117587089539E-08-9.909421385233E-01 2.980232238770E-08
     9.852282730893E-01 1.360937500000E+02-1.401931094572E+00-5.423797351502E-09
     2.725113511916E-10 5.210000000000E+02 2.036000000000E+03 0.000000000000E+00
     3.120000000000E+00 4.550000000000E+02-8.149072527885E-09-9.313225746155E-09
     1.980850000000E+05 0.000000000000E+00 0.000000000000E+00 0.000000000000E+00
E36 2019 01 15 06 50 00 7.594747003168E-04-4.490630090004E-12 0.000000000000E+00
     7.300000000000E+01-5.278125000000E+01 2.778687172046E-09-6.468270621663E-01
    -2.428889274597E-06 3.355030203238E-04 9.255483746529E-06 5.440597000122E+03
     1.974000000000E+05 5.215406417847E-08-9.909152135161E-01-3.725290298462E-08
     9.852363454713E-01 1.536875000000E+02-1.505894264643E+00-5.419868616426E-09
     2.267951612145E-10 5.210000000000E+02 2.036000000000E+03 0.000000000000E+00
     3.120000000000E+00 4.550000000000E+02 9.313225746155E-10 1.164153218269E-09
     1.980850000000E+05 0.000000000000E+00 0.000000000000E+00 0.000000000000E+00
E01 2019 01 15 06 50 00-5.211106035858E-04-8.043343768804E-12 0.000000000000E+00
     7.300000000000E+01 7.790625000000E+01 2.849404403416E-09 2.873118764472E+00
     3.682449460030E-06 7.997849024832E-05 3.969296813011E-06 5.440617649078E+03
     1.974000000000E+05 1.862645149231E-09-3.070927361297E+00-8.195638656616E-08
     9.900993689729E-01 2.667500000000E+02-5.774261377849E-01-5.688808390275E-09
     1.075044779930E-10 2.580000000000E+02 2.036000000000E+03 0.000000000000E+00
     3.120000000000E+00 0.000000000000E+00-4.656612873077E-09 0.000000000000E+00
     1.981000000000E+05 0.000000000000E+00 0.000000000000E+00 0.000000000000E+00
E02 2019 01 15 06 50 00 4.339881706983E-05 1.563194018672E-12 0.000000000000E+00
     7.300000000000E+01 8.859375000000E+01 2.873691129342E-09-7.299519355766E-01
     4.181638360023E-06 2.521338174120E-04 4.224479198456E-06 5.440616035461E+03
     1.974000000000E+05-2.607703208923E-08-3.070959900984E+00 1.173466444016E-07
     9.901070229603E-01 2.586562500000E+02-1.176672043971E-01-5.693451440820E-09
     1.089331089298E-10 2.580000000000E+02 2.036000000000E+03 0.000000000000E+00
    -1.000000000000E+00 0.000000000000E+00-6.286427378654E-09 0.000000000000E+00
     1.981000000000E+05 0.000000000000E+00 0.000000000000E+00 0.000000000000E+00
E03 2019 01 15 06 50 00-1.223545405082E-04-4.277467269276E-12 0.000000000000E+00
     7.300000000000E+01-5.518750000000E+01 3.391569843926E-09 6.248874120175E-01
    -2.572312951088E-06 2.557776169851E-04 8.294358849525E-06 5.440614128113E+03
     1.974000000000E+05-9.126961231232E-08 1.119694670497E+00-2.421438694000E-08
     9.524258256843E-01 1.588125000000E+02 6.183954029021E-01-5.644520831235E-09
    -2.967980771169E-10 2.580000000000E+02 2.036000000000E+03 0.000000000000E+00
     3.120000000000E+00 0.000000000000E+00-1.862645149231E-09 0.000000000000E+00
     1.981000000000E+05 0.000000000000E+00 0.000000000000E+00 0.000000000000E+00
E07 2019 01 15 06 50 00-1.128729782067E-04-7.048583938740E-12 0.000000000000E+00
     7.300000000000E+01-4.125000000000E+01 3.368711748937E-09-3.020684627754E-01
    -2.073124051094E-06 1.336253480986E-04 8.439645171165E-06 5.440618410110E+03
     1.974000000000E+05-7.450580596924E-09 1.119696750767E+00 3.911554813385E-08
     9.524688661971E-01 1.547500000000E+02-2.505225998433E-02-5.679165131452E-09
    -3.160845947635E-10 2.580000000000E+02 2.036000000000E+03 0.000000000000E+00
     3.120000000000E+00 0.000000000000E+00 2.328306436539E-10 0.000000000000E+00
     1.981000000000E+05 0.000000000000E+00 0.000000000000E+00 0.000000000000E+00
E09 2019 01 15 06 50 00 6.557786953636E-03-1.132605120802E-11 0.000000000000E+00
     7.300000000000E+01-5.550000000000E+01 3.387998266584E-09 2.737246406237E+00
    -2.734363079071E-06 2.388787688687E-04 9.022653102875E-06 5.440612318039E+03
     1.974000000000E+05 4.842877388000E-08 1.111094211682E+00-3.352761268616E-08
     9.584416959266E-01 1.454375000000E+02 7.714339783502E-02-5.686665443870E-09
    -4.196603376804E-10 2.580000000000E+02 2.036000000000E+03 0.000000000000E+00
     3.120000000000E+00 0.000000000000E+00-3.259629011154E-09 0.000000000000E+00
     1.981000000000E+05 0.000000000000E+00 0.000000000000E+00 0.000000000000E+00
